[{"OBJECT_NAME":"GSAT0218 (GALILEO 22)","OBJECT_ID":"2017-079D","EPOCH":"2026-03-05T22:08:34.882080","MEAN_MOTION":1.70474575,"ECCENTRICITY":0.00019217,"INCLINATION":55.1041,"RA_OF_ASC_NODE":224.3407,"ARG_OF_PERICENTER":303.222,"MEAN_ANOMALY":56.6985,"EPHEMERIS_TYPE":0,"CLASSIFICATION_TYPE":"U","NORAD_CAT_ID":43058,"ELEMENT_SET_NO":999,"REV_AT_EPOCH":5125,"BSTAR":0,"MEAN_MOTION_DOT":1.8e-7,"MEAN_MOTION_DDOT":0},{"OBJECT_NAME":"GOES 17","OBJECT_ID":"2018-022A","EPOCH":"2026-03-07T08:26:38.710752","MEAN_MOTION":1.00270088,"ECCENTRICITY":0.00020829,"INCLINATION":0.6754,"RA_OF_ASC_NODE":87.4909,"ARG_OF_PERICENTER":226.7834,"MEAN_ANOMALY":247.9185,"EPHEMERIS_TYPE":0,"CLASSIFICATION_TYPE":"U","NORAD_CAT_ID":43226,"ELEMENT_SET_NO":999,"REV_AT_EPOCH":2940,"BSTAR":0,"MEAN_MOTION_DOT":-1.84e-6,"MEAN_MOTION_DDOT":0},{"OBJECT_NAME":"GSAT0221 (GALILEO 25)","OBJECT_ID":"2018-060A","EPOCH":"2026-03-06T23:58:48.751968","MEAN_MOTION":1.70475614,"ECCENTRICITY":0.0005694,"INCLINATION":57.2026,"RA_OF_ASC_NODE":344.543,"ARG_OF_PERICENTER":308.1098,"MEAN_ANOMALY":51.8621,"EPHEMERIS_TYPE":0,"CLASSIFICATION_TYPE":"U","NORAD_CAT_ID":43564,"ELEMENT_SET_NO":999,"REV_AT_EPOCH":4742,"BSTAR":0,"MEAN_MOTION_DOT":-1.03e-6,"MEAN_MOTION_DDOT":0},{"OBJECT_NAME":"GSAT0222 (GALILEO 26)","OBJECT_ID":"2018-060B","EPOCH":"2026-03-06T01:05:30.417216","MEAN_MOTION":1.70475258,"ECCENTRICITY":0.00040842,"INCLINATION":57.206,"RA_OF_ASC_NODE":344.5721,"ARG_OF_PERICENTER":287.9587,"MEAN_ANOMALY":72.0183,"EPHEMERIS_TYPE":0,"CLASSIFICATION_TYPE":"U","NORAD_CAT_ID":43565,"ELEMENT_SET_NO":999,"REV_AT_EPOCH":4745,"BSTAR":0,"MEAN_MOTION_DOT":-1.05e-6,"MEAN_MOTION_DDOT":0},{"OBJECT_NAME":"GSAT0219 (GALILEO 23)","OBJECT_ID":"2018-060C","EPOCH":"2026-03-06T06:23:48.861600","MEAN_MOTION":1.70475265,"ECCENTRICITY":0.00049336,"INCLINATION":57.2056,"RA_OF_ASC_NODE":344.5677,"ARG_OF_PERICENTER":321.2111,"MEAN_ANOMALY":38.7755,"EPHEMERIS_TYPE":0,"CLASSIFICATION_TYPE":"U","NORAD_CAT_ID":43566,"ELEMENT_SET_NO":999,"REV_AT_EPOCH":4743,"BSTAR":0,"MEAN_MOTION_DOT":-1.04e-6,"MEAN_MOTION_DDOT":0},{"OBJECT_NAME":"GSAT0220 (GALILEO 24)","OBJECT_ID":"2018-060D","EPOCH":"2026-02-27T10:45:41.962176","MEAN_MOTION":1.70475159,"ECCENTRICITY":0.0005301,"INCLINATION":57.2075,"RA_OF_ASC_NODE":344.7516,"ARG_OF_PERICENTER":308.5821,"MEAN_ANOMALY":51.3768,"EPHEMERIS_TYPE":0,"CLASSIFICATION_TYPE":"U","NORAD_CAT_ID":43567,"ELEMENT_SET_NO":999,"REV_AT_EPOCH":4730,"BSTAR":0,"MEAN_MOTION_DOT":-1.02e-6,"MEAN_MOTION_DDOT":0},{"OBJECT_NAME":"BEIDOU-3 M13","OBJECT_ID":"2018-072A","EPOCH":"2026-03-04T19:54:34.683840","MEAN_MOTION":1.86230808,"ECCENTRICITY":0.0008916,"INCLINATION":56.5333,"RA_OF_ASC_NODE":66.1018,"ARG_OF_PERICENTER":307.8246,"MEAN_ANOMALY":52.1164,"EPHEMERIS_TYPE":0,"CLASSIFICATION_TYPE":"U","NORAD_CAT_ID":43622,"ELEMENT_SET_NO":999,"REV_AT_EPOCH":5071,"BSTAR":0,"MEAN_MOTION_DOT":-2.9e-7,"MEAN_MOTION_DDOT":0},{"OBJECT_NAME":"BEIDOU-3 M14","OBJECT_ID":"2018-072B","EPOCH":"2026-03-04T16:40:50.255904","MEAN_MOTION":1.86230841,"ECCENTRICITY":0.0006376,"INCLINATION":56.535,"RA_OF_ASC_NODE":66.1003,"ARG_OF_PERICENTER":328.815,"MEAN_ANOMALY":31.1695,"EPHEMERIS_TYPE":0,"CLASSIFICATION_TYPE":"U","NORAD_CAT_ID":43623,"ELEMENT_SET_NO":999,"REV_AT_EPOCH":5070,"BSTAR":0,"MEAN_MOTION_DOT":-2.8e-7,"MEAN_MOTION_DDOT":0},{"OBJECT_NAME":"GPS BIII-1","OBJECT_ID":"2018-109A","EPOCH":"2026-03-06T13:04:28.642080","MEAN_MOTION":2.00556975,"ECCENTRICITY":0.00379513,"INCLINATION":55.6164,"RA_OF_ASC_NODE":96.2348,"ARG_OF_PERICENTER":198.3878,"MEAN_ANOMALY":333.9441,"EPHEMERIS_TYPE":0,"CLASSIFICATION_TYPE":"U","NORAD_CAT_ID":43873,"ELEMENT_SET_NO":999,"REV_AT_EPOCH":5301,"BSTAR":0,"MEAN_MOTION_DOT":-4.0e-8,"MEAN_MOTION_DDOT":0},{"OBJECT_NAME":"METEOR-M2 2","OBJECT_ID":"2019-038A","EPOCH":"2026-03-07T14:20:14.070912","MEAN_MOTION":14.24331878,"ECCENTRICITY":0.0001021,"INCLINATION":98.9087,"RA_OF_ASC_NODE":52.4198,"ARG_OF_PERICENTER":8.3814,"MEAN_ANOMALY":351.7381,"EPHEMERIS_TYPE":0,"CLASSIFICATION_TYPE":"U","NORAD_CAT_ID":44387,"ELEMENT_SET_NO":999,"REV_AT_EPOCH":34683,"BSTAR":-2.5401071e-5,"MEAN_MOTION_DOT":-1.05e-6,"MEAN_MOTION_DDOT":0},{"OBJECT_NAME":"GPS BIII-2","OBJECT_ID":"2019-056A","EPOCH":"2026-03-06T04:23:28.854240","MEAN_MOTION":2.00568454,"ECCENTRICITY":0.00580462,"INCLINATION":55.6839,"RA_OF_ASC_NODE":335.2387,"ARG_OF_PERICENTER":198.0933,"MEAN_ANOMALY":333.3685,"EPHEMERIS_TYPE":0,"CLASSIFICATION_TYPE":"U","NORAD_CAT_ID":44506,"ELEMENT_SET_NO":999,"REV_AT_EPOCH":4800,"BSTAR":0,"MEAN_MOTION_DOT":-1.0e-6,"MEAN_MOTION_DDOT":0},{"OBJECT_NAME":"BEIDOU-3 M24","OBJECT_ID":"2019-061A","EPOCH":"2026-03-06T03:31:39.309600","MEAN_MOTION":1.862289,"ECCENTRICITY":0.000859,"INCLINATION":54.399,"RA_OF_ASC_NODE":186.2022,"ARG_OF_PERICENTER":20.7979,"MEAN_ANOMALY":339.21,"EPHEMERIS_TYPE":0,"CLASSIFICATION_TYPE":"U","NORAD_CAT_ID":44542,"ELEMENT_SET_NO":999,"REV_AT_EPOCH":4387,"BSTAR":0,"MEAN_MOTION_DOT":1.2e-7,"MEAN_MOTION_DDOT":0},{"OBJECT_NAME":"BEIDOU-3 M23","OBJECT_ID":"2019-061B","EPOCH":"2026-03-07T08:18:38.763936","MEAN_MOTION":1.86227456,"ECCENTRICITY":0.00050552,"INCLINATION":54.3975,"RA_OF_ASC_NODE":186.1302,"ARG_OF_PERICENTER":13.3914,"MEAN_ANOMALY":342.9182,"EPHEMERIS_TYPE":0,"CLASSIFICATION_TYPE":"U","NORAD_CAT_ID":44543,"ELEMENT_SET_NO":999,"REV_AT_EPOCH":4389,"BSTAR":0,"MEAN_MOTION_DOT":1.7e-7,"MEAN_MOTION_DDOT":0},{"OBJECT_NAME":"BEIDOU-3 M22","OBJECT_ID":"2019-078A","EPOCH":"2026-03-07T01:26:40.046208","MEAN_MOTION":1.86232046,"ECCENTRICITY":0.00073986,"INCLINATION":54.028,"RA_OF_ASC_NODE":303.4217,"ARG_OF_PERICENTER":37.4223,"MEAN_ANOMALY":322.6804,"EPHEMERIS_TYPE":0,"CLASSIFICATION_TYPE":"U","NORAD_CAT_ID":44793,"ELEMENT_SET_NO":999,"REV_AT_EPOCH":4274,"BSTAR":0,"MEAN_MOTION_DOT":-6.5e-7,"MEAN_MOTION_DDOT":0},{"OBJECT_NAME":"BEIDOU-3 M21","OBJECT_ID":"2019-078B","EPOCH":"2026-03-07T04:47:41.254656","MEAN_MOTION":1.86227693,"ECCENTRICITY":0.00053182,"INCLINATION":54.0014,"RA_OF_ASC_NODE":303.3801,"ARG_OF_PERICENTER":31.7457,"MEAN_ANOMALY":328.3372,"EPHEMERIS_TYPE":0,"CLASSIFICATION_TYPE":"U","NORAD_CAT_ID":44794,"ELEMENT_SET_NO":999,"REV_AT_EPOCH":4275,"BSTAR":0,"MEAN_MOTION_DOT":-6.5e-7,"MEAN_MOTION_DDOT":0},{"OBJECT_NAME":"ELEKTRO-L 3","OBJECT_ID":"2019-095A","EPOCH":"2026-03-07T00:42:21.691872","MEAN_MOTION":1.00270545,"ECCENTRICITY":0.00016035,"INCLINATION":0.0459,"RA_OF_ASC_NODE":324.0783,"ARG_OF_PERICENTER":14.1329,"MEAN_ANOMALY":273.0594,"EPHEMERIS_TYPE":0,"CLASSIFICATION_TYPE":"U","NORAD_CAT_ID":44903,"ELEMENT_SET_NO":999,"REV_AT_EPOCH":2268,"BSTAR":0,"MEAN_MOTION_DOT":-9.8e-7,"MEAN_MOTION_DDOT":0},{"OBJECT_NAME":"GPS BIII-3","OBJECT_ID":"2020-041A","EPOCH":"2026-03-06T12:27:43.764192","MEAN_MOTION":2.00560728,"ECCENTRICITY":0.00614306,"INCLINATION":56.6073,"RA_OF_ASC_NODE":32.9268,"ARG_OF_PERICENTER":205.2409,"MEAN_ANOMALY":151.126,"EPHEMERIS_TYPE":0,"CLASSIFICATION_TYPE":"U","NORAD_CAT_ID":45854,"ELEMENT_SET_NO":999,"REV_AT_EPOCH":4197,"BSTAR":0,"MEAN_MOTION_DOT":-8.1e-7,"MEAN_MOTION_DDOT":0}]
